STARLINK-3349           
1 50813U 22001L   26151.14569883  .00048792  00000+0  10572-2 0  9997
2 50813  53.2019  95.0490 0002992  78.1718 281.9624 15.43973198243764
STARLINK-3324           
1 50814U 22001M   26151.04281644  .00000323  00000+0  38396-4 0  9997
2 50814  53.1951 159.4147 0001280  80.6761 279.4375 15.08830223242843
STARLINK-3234           
1 50815U 22001N   26151.18633698 -.00000117  00000+0  10733-4 0  9990
2 50815  53.1954 158.7703 0001360  88.7816 271.3332 15.08832211242861
STARLINK-3342           
1 50816U 22001P   26151.19456696  .00029724  00000+0  15063-2 0  9996
2 50816  53.2087 153.5359 0003372  52.3158 307.8143 15.16752239242934
STARLINK-3341           
1 50817U 22001Q   26151.18266007 -.00000446  00000+0 -99231-5 0  9995
2 50817  53.1955 158.7901 0001740  31.1454 328.9641 15.08838949242862
STARLINK-3336           
1 50818U 22001R   26151.03178729  .00003202  00000+0  21928-3 0  9990
2 50818  53.1954 159.4621 0001338  53.1277 306.9838 15.08818768242837
STARLINK-3327           
1 50819U 22001S   26151.03913374 -.00000372  00000+0 -52954-5 0  9996
2 50819  53.1950 159.4296 0001257  82.6358 277.4777 15.08834381242843
STARLINK-3339           
1 50820U 22001T   26150.42457175  .00000436  00000+0  45455-4 0  9998
2 50820  53.1969 162.1899 0001362  70.5654 289.5485 15.08841314242740
STARLINK-3346           
1 50821U 22001U   26151.19368373  .00000185  00000+0  29708-4 0  9999
2 50821  53.1961 158.6207 0001204  69.0090 291.1031 15.08834533242862
STARLINK-3343           
1 50822U 22001V   26151.21209544  .00000342  00000+0  39612-4 0  9997
2 50822  53.1957 158.6547 0001358  76.7159 283.3984 15.08836934242863
STARLINK-3334           
1 50823U 22001W   26151.17897590 -.00000868  00000+0 -36463-4 0  9993
2 50823  53.1951 158.8036 0001216  88.1724 271.9407 15.08838929242860
STARLINK-3332           
1 50825U 22001Y   26150.35465281 -.00000174  00000+0  71524-5 0  9999
2 50825  53.1962 162.5042 0001140  78.8486 281.2635 15.08843313242736
STARLINK-3329           
1 50827U 22001AA  26151.16057191  .00000424  00000+0  44732-4 0  9995
2 50827  53.1966 158.8891 0000885  78.6700 281.4392 15.08844119242854
STARLINK-3290           
1 50828U 22001AB  26151.21303725  .00003813  00000+0  25767-3 0  9990
2 50828  53.1951 158.5418 0000862 108.3510 251.7575 15.08821393242713
STARLINK-3294           
1 50829U 22001AC  26151.10169437  .00000181  00000+0  29446-4 0  9993
2 50829  53.1937 159.1486 0001594  60.2507 299.8643 15.08835140242843
STARLINK-3278           
1 50830U 22001AD  26150.45677551  .00001712  00000+0  12571-3 0  9994
2 50830  53.1978 172.0481 0001504  57.6942 302.4196 15.08825650242617
STARLINK-3299           
1 50831U 22001AE  26151.19738367  .00001062  00000+0  84803-4 0  9996
2 50831  53.1957 158.7872 0001223  98.0804 262.0327 15.08836530242867
STARLINK-3328           
1 50832U 22001AF  26150.32525516  .00000458  00000+0  46841-4 0  9999
2 50832  53.1979 172.6845 0001090  89.4885 270.6232 15.08840058242592
STARLINK-3331           
1 50834U 22001AH  26150.44205423  .00000320  00000+0  38170-4 0  9990
2 50834  53.1962 172.1163 0001096  78.3019 281.8096 15.08839003242608
STARLINK-3310           
1 50835U 22001AJ  26151.02769919  .00018095  00000+0  11169-2 0  9996
2 50835  53.2141 169.4585 0001504  54.9836 305.1298 15.09976152242698
STARLINK-3330           
1 50836U 22001AK  26150.29210511  .00000390  00000+0  42607-4 0  9996
2 50836  53.1966 172.5621 0001330  90.5346 269.5798 15.08834020242489
STARLINK-3318           
1 50837U 22001AL  26151.20105683 -.00001781  00000+0 -93801-4 0  9991
2 50837  53.1966 158.7024 0001414  93.5392 266.5762 15.08842578242867
STARLINK-3320           
1 50839U 22001AN  26150.29117152  .00000196  00000+0  30414-4 0  9993
2 50839  53.1968 172.7868 0001199  74.6598 285.4526 15.08838487242571
STARLINK-3295           
1 50840U 22001AP  26151.21485347  .00003562  00000+0  24184-3 0  9998
2 50840  53.1964 168.6385 0001101  89.0535 271.0583 15.08827116242718
STARLINK-3300           
1 50841U 22001AQ  26150.43101405 -.00000571  00000+0 -17776-4 0  9991
2 50841  53.1959 172.1617 0001020  63.6445 296.4651 15.08837001242608
STARLINK-3302           
1 50842U 22001AR  26151.21117867 -.00000335  00000+0 -29664-5 0  9996
2 50842  53.1941 168.6579 0001198  59.7082 300.4029 15.08830024242711
STARLINK-3326           
1 50844U 22001AT  26151.20012512 -.00005296  00000+0 -31475-3 0  9990
2 50844  53.1942 168.7068 0001241 119.5449 240.5667 15.08853726242726
STARLINK-3230           
1 50845U 22001AU  26150.38318967 -.00000330  00000+0 -26286-5 0  9992
2 50845  53.1982 172.3744 0001230  75.9561 284.1567 15.08833507242606
STARLINK-3308           
1 50846U 22001AV  26151.20750979  .00000049  00000+0  21193-4 0  9994
2 50846  53.1953 168.7910 0001305  66.9604 293.1525 15.08833224242723
STARLINK-3315           
1 50848U 22001AX  26151.19277300  .00000362  00000+0  40859-4 0  9994
2 50848  53.1951 168.7398 0001288  73.9913 286.1221 15.08837666242723
