OBJECT_NAME,OBJECT_ID,EPOCH,MEAN_MOTION,ECCENTRICITY,INCLINATION,RA_OF_ASC_NODE,ARG_OF_PERICENTER,MEAN_ANOMALY,EPHEMERIS_TYPE,CLASSIFICATION_TYPE,NORAD_CAT_ID,ELEMENT_SET_NO,REV_AT_EPOCH,BSTAR,MEAN_MOTION_DOT,MEAN_MOTION_DDOT
STARLINK-3349,2022-001L,2026-05-31T03:29:48.378912,15.43973198,.0002992,53.2019,95.0490,78.1718,281.9624,0,U,50813,999,24376,.10572E-2,.48792E-3,0
STARLINK-3324,2022-001M,2026-05-31T01:01:39.340416,15.08830223,.000128,53.1951,159.4147,80.6761,279.4375,0,U,50814,999,24284,.38396E-4,.323E-5,0
STARLINK-3234,2022-001N,2026-05-31T04:28:19.515072,15.08832211,.000136,53.1954,158.7703,88.7816,271.3332,0,U,50815,999,24286,.10733E-4,-.117E-5,0
STARLINK-3342,2022-001P,2026-05-31T04:40:10.585344,15.16752239,.0003372,53.2087,153.5359,52.3158,307.8143,0,U,50816,999,24293,.15063E-2,.29724E-3,0
STARLINK-3341,2022-001Q,2026-05-31T04:23:01.830048,15.08838949,.000174,53.1955,158.7901,31.1454,328.9641,0,U,50817,999,24286,-.99231E-5,-.446E-5,0
STARLINK-3336,2022-001R,2026-05-31T00:45:46.421856,15.08818768,.0001338,53.1954,159.4621,53.1277,306.9838,0,U,50818,999,24283,.21928E-3,.3202E-4,0
STARLINK-3327,2022-001S,2026-05-31T00:56:21.155136,15.08834381,.0001257,53.1950,159.4296,82.6358,277.4777,0,U,50819,999,24284,-.52954E-5,-.372E-5,0
STARLINK-3339,2022-001T,2026-05-30T10:11:22.999200,15.08841314,.00013621,53.1969,162.1899,70.5654,289.5485,0,U,50820,999,24274,.4545504E-4,.436E-5,0
STARLINK-3346,2022-001U,2026-05-31T04:38:54.274272,15.08834533,.0001204,53.1961,158.6207,69.0090,291.1031,0,U,50821,999,24286,.29708E-4,.185E-5,0
STARLINK-3343,2022-001V,2026-05-31T05:05:25.046016,15.08836934,.0001358,53.1957,158.6547,76.7159,283.3984,0,U,50822,999,24286,.39612E-4,.342E-5,0
STARLINK-3334,2022-001W,2026-05-31T04:17:43.517760,15.08838929,.0001216,53.1951,158.8036,88.1724,271.9407,0,U,50823,999,24286,-.36463E-4,-.868E-5,0
STARLINK-3332,2022-001Y,2026-05-30T08:30:42.002784,15.08843313,.00011407,53.1962,162.5042,78.8486,281.2635,0,U,50825,999,24273,.7152357E-5,-.174E-5,0
STARLINK-3329,2022-001AA,2026-05-31T03:51:13.413024,15.08844119,.0000885,53.1966,158.8891,78.6700,281.4392,0,U,50827,999,24285,.44732E-4,.424E-5,0
STARLINK-3290,2022-001AB,2026-05-31T05:06:46.418400,15.08821393,.0000862,53.1951,158.5418,108.3510,251.7575,0,U,50828,999,24271,.25767E-3,.3813E-4,0
STARLINK-3294,2022-001AC,2026-05-31T02:26:26.393568,15.08835140,.0001594,53.1937,159.1486,60.2507,299.8643,0,U,50829,999,24284,.29446E-4,.181E-5,0
STARLINK-3278,2022-001AD,2026-05-30T10:57:45.404064,15.08825650,.00015043,53.1978,172.0481,57.6942,302.4196,0,U,50830,999,24261,.12570878E-3,.1712E-4,0
STARLINK-3299,2022-001AE,2026-05-31T04:44:13.949088,15.08836530,.0001223,53.1957,158.7872,98.0804,262.0327,0,U,50831,999,24286,.84803E-4,.1062E-4,0
STARLINK-3328,2022-001AF,2026-05-30T07:48:22.045824,15.08840058,.00010902,53.1979,172.6845,89.4885,270.6232,0,U,50832,999,24259,.46840595E-4,.458E-5,0
STARLINK-3331,2022-001AH,2026-05-30T10:36:33.485472,15.08839003,.00010965,53.1962,172.1163,78.3019,281.8096,0,U,50834,999,24260,.38169765E-4,.32E-5,0
STARLINK-3310,2022-001AJ,2026-05-31T00:39:53.210016,15.09976152,.0001504,53.2141,169.4585,54.9836,305.1298,0,U,50835,999,24269,.11169E-2,.18095E-3,0
STARLINK-3330,2022-001AK,2026-05-30T07:00:37.881504,15.08834020,.00013304,53.1966,172.5621,90.5346,269.5798,0,U,50836,999,24248,.42606859E-4,.39E-5,0
STARLINK-3318,2022-001AL,2026-05-31T04:49:31.310112,15.08842578,.0001414,53.1966,158.7024,93.5392,266.5762,0,U,50837,999,24286,-.93801E-4,-.1781E-4,0
STARLINK-3320,2022-001AN,2026-05-30T06:59:17.219328,15.08838487,.00011998,53.1968,172.7868,74.6598,285.4526,0,U,50839,999,24257,.30414152E-4,.196E-5,0
STARLINK-3295,2022-001AP,2026-05-31T05:09:23.339808,15.08827116,.0001101,53.1964,168.6385,89.0535,271.0583,0,U,50840,999,24271,.24184E-3,.3562E-4,0
STARLINK-3300,2022-001AQ,2026-05-30T10:20:39.613920,15.08837001,.00010207,53.1959,172.1617,63.6445,296.4651,0,U,50841,999,24260,-.17775825E-4,-.571E-5,0
STARLINK-3302,2022-001AR,2026-05-31T05:04:05.837088,15.08830024,.0001198,53.1941,168.6579,59.7082,300.4029,0,U,50842,999,24271,-.29664E-5,-.335E-5,0
STARLINK-3326,2022-001AT,2026-05-31T04:48:10.810368,15.08853726,.0001241,53.1942,168.7068,119.5449,240.5667,0,U,50844,999,24272,-.31475E-3,-.5296E-4,0
STARLINK-3230,2022-001AU,2026-05-30T09:11:47.587488,15.08833507,.00012301,53.1982,172.3744,75.9561,284.1567,0,U,50845,999,24260,-.2628577E-5,-.33E-5,0
STARLINK-3308,2022-001AV,2026-05-31T04:58:48.845856,15.08833224,.0001305,53.1953,168.7910,66.9604,293.1525,0,U,50846,999,24272,.21193E-4,.49E-6,0
STARLINK-3315,2022-001AX,2026-05-31T04:37:35.587200,15.08837666,.0001288,53.1951,168.7398,73.9913,286.1221,0,U,50848,999,24272,.40859E-4,.362E-5,0
